{"type": "FeatureCollection", "features": [ {"type": "Feature", "properties": {"norad_id": 34014, "name": "COSMOS 2251 DEB", "group": "cosmos-2251-debris", "lat": -69.07648026602453, "lon": -145.48531807093616, "alt_km": 669.3426535075187, "timestamp": "2025-12-21T18:54:58.889061+00:00", "meta": {"OBJECT_NAME": "COSMOS 2251 DEB", "OBJECT_ID": "1993-036GZ", "EPOCH": "2025-12-21T05:08:14.141184", "MEAN_MOTION": 14.73228686, "ECCENTRICITY": 0.00374091, "INCLINATION": 74.0175, "RA_OF_ASC_NODE": 264.1922, "ARG_OF_PERICENTER": 41.4794, "MEAN_ANOMALY": 78.904, "EPHEMERIS_TYPE": 0, "CLASSIFICATION_TYPE": "U", "NORAD_CAT_ID": 34014, "ELEMENT_SET_NO": 999, "REV_AT_EPOCH": 89428, "BSTAR": 0.00058417491, "MEAN_MOTION_DOT": 3.783e-05, "MEAN_MOTION_DDOT": 0}, "tle": {"line1": "1 34014U 93036GZ  25355.21405256  .00003783  00000+0  58417-3 0  9996", "line2": "2 34014  74.0175 264.1922 0037409  41.4794  78.9040 14.73228686894282"}}, "geometry": {"type": "Point", "coordinates": [-145.48531807093616, -69.07648026602453]}}, {"type": "Feature", "properties": {"norad_id": 34015, "name": "COSMOS 2251 DEB", "group": "cosmos-2251-debris", "lat": -18.026504175990407, "lon": 136.7882648783912, "alt_km": 699.913917101916, "timestamp": "2025-12-21T18:54:58.889071+00:00", "meta": {"OBJECT_NAME": "COSMOS 2251 DEB", "OBJECT_ID": "1993-036HA", "EPOCH": "2025-12-21T12:44:32.644896", "MEAN_MOTION": 14.60356112, "ECCENTRICITY": 0.00209253, "INCLINATION": 74.0238, "RA_OF_ASC_NODE": 142.6291, "ARG_OF_PERICENTER": 239.1216, "MEAN_ANOMALY": 190.1084, "EPHEMERIS_TYPE": 0, "CLASSIFICATION_TYPE": "U", "NORAD_CAT_ID": 34015, "ELEMENT_SET_NO": 999, "REV_AT_EPOCH": 88659, "BSTAR": 0.0010588579, "MEAN_MOTION_DOT": 5.11e-05, "MEAN_MOTION_DDOT": 0}, "tle": {"line1": "1 34015U 93036HA  25355.53093339  .00005110  00000+0  10589-2 0  9990", "line2": "2 34015  74.0238 142.6291 0020925 239.1216 190.1084 14.60356112886594"}}, "geometry": {"type": "Point", "coordinates": [136.7882648783912, -18.026504175990407]}}, {"type": "Feature", "properties": {"norad_id": 34018, "name": "COSMOS 2251 DEB", "group": "cosmos-2251-debris", "lat": 58.62903339967421, "lon": 105.08132688465336, "alt_km": 822.3194583466293, "timestamp": "2025-12-21T18:54:58.889081+00:00", "meta": {"OBJECT_NAME": "COSMOS 2251 DEB", "OBJECT_ID": "1993-036HD", "EPOCH": "2025-12-21T06:43:04.930752", "MEAN_MOTION": 13.81081009, "ECCENTRICITY": 0.0263277, "INCLINATION": 73.878, "RA_OF_ASC_NODE": 77.6238, "ARG_OF_PERICENTER": 111.8742, "MEAN_ANOMALY": 307.0391, "EPHEMERIS_TYPE": 0, "CLASSIFICATION_TYPE": "U", "NORAD_CAT_ID": 34018, "ELEMENT_SET_NO": 999, "REV_AT_EPOCH": 84775, "BSTAR": 0.00029152, "MEAN_MOTION_DOT": 3.79e-06, "MEAN_MOTION_DDOT": 0}, "tle": {"line1": "1 34018U 93036HD  25355.27991818  .00000379  00000+0  29152-3 0  9992", "line2": "2 34018  73.8780  77.6238 0263277 111.8742 307.0391 13.81081009847750"}}, "geometry": {"type": "Point", "coordinates": [105.08132688465336, 58.62903339967421]}}, {"type": "Feature", "properties": {"norad_id": 34019, "name": "COSMOS 2251 DEB", "group": "cosmos-2251-debris", "lat": 64.27188519546146, "lon": 177.42363252882174, "alt_km": 782.0997128320196, "timestamp": "2025-12-21T18:54:58.889091+00:00", "meta": {"OBJECT_NAME": "COSMOS 2251 DEB", "OBJECT_ID": "1993-036HE", "EPOCH": "2025-12-21T13:57:38.157696", "MEAN_MOTION": 14.33973925, "ECCENTRICITY": 0.00623707, "INCLINATION": 73.9533, "RA_OF_ASC_NODE": 34.4787, "ARG_OF_PERICENTER": 214.3878, "MEAN_ANOMALY": 271.107, "EPHEMERIS_TYPE": 0, "CLASSIFICATION_TYPE": "U", "NORAD_CAT_ID": 34019, "ELEMENT_SET_NO": 999, "REV_AT_EPOCH": 87647, "BSTAR": 0.00058885024, "MEAN_MOTION_DOT": 1.653e-05, "MEAN_MOTION_DDOT": 0}, "tle": {"line1": "1 34019U 93036HE  25355.58169164  .00001653  00000+0  58885-3 0  9999", "line2": "2 34019  73.9533  34.4787 0062370 214.3878 271.1070 14.33973925876479"}}, "geometry": {"type": "Point", "coordinates": [177.42363252882174, 64.27188519546146]}}, {"type": "Feature", "properties": {"norad_id": 34021, "name": "COSMOS 2251 DEB", "group": "cosmos-2251-debris", "lat": 10.65740231039488, "lon": 115.92709782715781, "alt_km": 733.1866080873533, "timestamp": "2025-12-21T18:54:58.889100+00:00", "meta": {"OBJECT_NAME": "COSMOS 2251 DEB", "OBJECT_ID": "1993-036HG", "EPOCH": "2025-12-21T09:11:27.909888", "MEAN_MOTION": 14.4997632, "ECCENTRICITY": 0.00209884, "INCLINATION": 74.036, "RA_OF_ASC_NODE": 113.5998, "ARG_OF_PERICENTER": 256.8538, "MEAN_ANOMALY": 159.7796, "EPHEMERIS_TYPE": 0, "CLASSIFICATION_TYPE": "U", "NORAD_CAT_ID": 34021, "ELEMENT_SET_NO": 999, "REV_AT_EPOCH": 88755, "BSTAR": 0.00036322987, "MEAN_MOTION_DOT": 1.382e-05, "MEAN_MOTION_DDOT": 0}, "tle": {"line1": "1 34021U 93036HG  25355.38296192  .00001382  00000+0  36323-3 0  9994", "line2": "2 34021  74.0360 113.5998 0020988 256.8538 159.7796 14.49976320887554"}}, "geometry": {"type": "Point", "coordinates": [115.92709782715781, 10.65740231039488]}}, {"type": "Feature", "properties": {"norad_id": 34022, "name": "COSMOS 2251 DEB", "group": "cosmos-2251-debris", "lat": -8.999987977891431, "lon": 76.71840076389533, "alt_km": 775.7606445550746, "timestamp": "2025-12-21T18:54:58.889110+00:00", "meta": {"OBJECT_NAME": "COSMOS 2251 DEB", "OBJECT_ID": "1993-036HH", "EPOCH": "2025-12-21T12:11:08.373984", "MEAN_MOTION": 14.38975294, "ECCENTRICITY": 0.00229945, "INCLINATION": 74.054, "RA_OF_ASC_NODE": 254.6395, "ARG_OF_PERICENTER": 318.1832, "MEAN_ANOMALY": 219.0619, "EPHEMERIS_TYPE": 0, "CLASSIFICATION_TYPE": "U", "NORAD_CAT_ID": 34022, "ELEMENT_SET_NO": 999, "REV_AT_EPOCH": 88321, "BSTAR": 0.00017157416, "MEAN_MOTION_DOT": 5.04e-06, "MEAN_MOTION_DDOT": 0}, "tle": {"line1": "1 34022U 93036HH  25355.50773581  .00000504  00000+0  17157-3 0  9990", "line2": "2 34022  74.0540 254.6395 0022994 318.1832 219.0619 14.38975294883211"}}, "geometry": {"type": "Point", "coordinates": [76.71840076389533, -8.999987977891431]}}, {"type": "Feature", "properties": {"norad_id": 34023, "name": "COSMOS 2251 DEB", "group": "cosmos-2251-debris", "lat": 18.18893682813772, "lon": 49.59754122869335, "alt_km": 769.6952381790816, "timestamp": "2025-12-21T18:54:58.889120+00:00", "meta": {"OBJECT_NAME": "COSMOS 2251 DEB", "OBJECT_ID": "1993-036HJ", "EPOCH": "2025-12-21T02:14:19.944960", "MEAN_MOTION": 14.40576503, "ECCENTRICITY": 0.00187819, "INCLINATION": 74.0244, "RA_OF_ASC_NODE": 236.2841, "ARG_OF_PERICENTER": 330.7165, "MEAN_ANOMALY": 187.9479, "EPHEMERIS_TYPE": 0, "CLASSIFICATION_TYPE": "U", "NORAD_CAT_ID": 34023, "ELEMENT_SET_NO": 999, "REV_AT_EPOCH": 88334, "BSTAR": 0.00020252701, "MEAN_MOTION_DOT": 6.2e-06, "MEAN_MOTION_DDOT": 0}, "tle": {"line1": "1 34023U 93036HJ  25355.09328640  .00000620  00000+0  20253-3 0  9997", "line2": "2 34023  74.0244 236.2841 0018781 330.7165 187.9479 14.40576503883347"}}, "geometry": {"type": "Point", "coordinates": [49.59754122869335, 18.18893682813772]}}, {"type": "Feature", "properties": {"norad_id": 34024, "name": "COSMOS 2251 DEB", "group": "cosmos-2251-debris", "lat": 2.0533048890992043, "lon": -60.003756671849864, "alt_km": 761.1731060275424, "timestamp": "2025-12-21T18:54:58.889130+00:00", "meta": {"OBJECT_NAME": "COSMOS 2251 DEB", "OBJECT_ID": "1993-036HK", "EPOCH": "2025-12-21T14:44:45.214080", "MEAN_MOTION": 14.35405223, "ECCENTRICITY": 0.00214444, "INCLINATION": 74.0468, "RA_OF_ASC_NODE": 299.727, "ARG_OF_PERICENTER": 348.6149, "MEAN_ANOMALY": 195.9913, "EPHEMERIS_TYPE": 0, "CLASSIFICATION_TYPE": "U", "NORAD_CAT_ID": 34024, "ELEMENT_SET_NO": 999, "REV_AT_EPOCH": 88151, "BSTAR": 0.00014442173, "MEAN_MOTION_DOT": 3.9e-06, "MEAN_MOTION_DDOT": 0}, "tle": {"line1": "1 34024U 93036HK  25355.61441220  .00000390  00000+0  14442-3 0  9993", "line2": "2 34024  74.0468 299.7270 0021444 348.6149 195.9913 14.35405223881519"}}, "geometry": {"type": "Point", "coordinates": [-60.003756671849864, 2.0533048890992043]}}, {"type": "Feature", "properties": {"norad_id": 34026, "name": "COSMOS 2251 DEB", "group": "cosmos-2251-debris", "lat": 52.285364782205846, "lon": 120.10697188361928, "alt_km": 900.1381133267587, "timestamp": "2025-12-21T18:54:58.889140+00:00", "meta": {"OBJECT_NAME": "COSMOS 2251 DEB", "OBJECT_ID": "1993-036HM", "EPOCH": "2025-12-21T08:31:12.086400", "MEAN_MOTION": 13.6531918, "ECCENTRICITY": 0.03498541, "INCLINATION": 73.7668, "RA_OF_ASC_NODE": 322.9589, "ARG_OF_PERICENTER": 191.6609, "MEAN_ANOMALY": 328.0725, "EPHEMERIS_TYPE": 0, "CLASSIFICATION_TYPE": "U", "NORAD_CAT_ID": 34026, "ELEMENT_SET_NO": 999, "REV_AT_EPOCH": 83649, "BSTAR": 0.000378261, "MEAN_MOTION_DOT": 4.44e-06, "MEAN_MOTION_DDOT": 0}, "tle": {"line1": "1 34026U 93036HM  25355.35500100  .00000444  00000+0  37826-3 0  9990", "line2": "2 34026  73.7668 322.9589 0349854 191.6609 328.0725 13.65319180836491"}}, "geometry": {"type": "Point", "coordinates": [120.10697188361928, 52.285364782205846]}}, {"type": "Feature", "properties": {"norad_id": 34028, "name": "COSMOS 2251 DEB", "group": "cosmos-2251-debris", "lat": 45.70576962309328, "lon": 136.14095944888948, "alt_km": 794.1024371123285, "timestamp": "2025-12-21T18:54:58.889150+00:00", "meta": {"OBJECT_NAME": "COSMOS 2251 DEB", "OBJECT_ID": "1993-036HP", "EPOCH": "2025-12-21T09:46:13.960992", "MEAN_MOTION": 13.20629697, "ECCENTRICITY": 0.05435224, "INCLINATION": 73.8836, "RA_OF_ASC_NODE": 333.962, "ARG_OF_PERICENTER": 110.3178, "MEAN_ANOMALY": 8.103, "EPHEMERIS_TYPE": 0, "CLASSIFICATION_TYPE": "U", "NORAD_CAT_ID": 34028, "ELEMENT_SET_NO": 999, "REV_AT_EPOCH": 81122, "BSTAR": 0.00047266079, "MEAN_MOTION_DOT": 4.01e-06, "MEAN_MOTION_DDOT": 0}, "tle": {"line1": "1 34028U 93036HP  25355.40710603  .00000401  00000+0  47266-3 0  9991", "line2": "2 34028  73.8836 333.9620 0543522 110.3178   8.1030 13.20629697811223"}}, "geometry": {"type": "Point", "coordinates": [136.14095944888948, 45.70576962309328]}}]}